CTC2_L_00455001-01
1 10000U 24270YC  26075.70046296  .00000000  00000+0  00000-0 0  9999
2 10000  43.0000   0.0000 0000000   0.0000   0.0000 15.76628882    14
CTC2_L_00455001-02
1 10001U 26830FM  26075.70046296  .00000000  00000+0  00000-0 0  9994
2 10001  43.0000   0.0000 0000000   0.0000 180.0000 15.76628882    14
CTC2_L_00455002-01
1 10002U 22687FO  26075.70046296  .00000000  00000+0  00000-0 0  9991
2 10002  43.0000  12.0000 0000000   0.0000  24.0000 15.76628882    15
CTC2_L_00455002-02
1 10003U 23227LK  26075.70046296  .00000000  00000+0  00000-0 0  9993
2 10003  43.0000  12.0000 0000000   0.0000 204.0000 15.76628882    16
CTC2_L_00455003-01
1 10004U 24770HG  26075.70046296  .00000000  00000+0  00000-0 0  9998
2 10004  43.0000  24.0000 0000000   0.0000  48.0000 15.76628882    16
CTC2_L_00455003-02
1 10005U 22990UZ  26075.70046296  .00000000  00000+0  00000-0 0  9991
2 10005  43.0000  24.0000 0000000   0.0000 228.0000 15.76628882    17
CTC2_L_00455004-01
1 10006U 22585ET  26075.70046296  .00000000  00000+0  00000-0 0  9992
2 10006  43.0000  36.0000 0000000   0.0000  72.0000 15.76628882    18
CTC2_L_00455004-02
1 10007U 22147QA  26075.70046296  .00000000  00000+0  00000-0 0  9997
2 10007  43.0000  36.0000 0000000   0.0000 252.0000 15.76628882    19
CTC2_L_00455005-01
1 10008U 23500UA  26075.70046296  .00000000  00000+0  00000-0 0  9992
2 10008  43.0000  48.0000 0000000   0.0000  96.0000 15.76628882    19
CTC2_L_00455005-02
1 10009U 23261VJ  26075.70046296  .00000000  00000+0  00000-0 0  9997
2 10009  43.0000  48.0000 0000000   0.0000 276.0000 15.76628882    10
CTC2_L_00455006-01
1 10010U 26153NX  26075.70046296  .00000000  00000+0  00000-0 0  9992
2 10010  43.0000  60.0000 0000000   0.0000 120.0000 15.76628882    14
CTC2_L_00455006-02
1 10011U 26050DX  26075.70046296  .00000000  00000+0  00000-0 0  9999
2 10011  43.0000  60.0000 0000000   0.0000 300.0000 15.76628882    15
CTC2_L_00455007-01
1 10012U 24931VX  26075.70046296  .00000000  00000+0  00000-0 0  9996
2 10012  43.0000  72.0000 0000000   0.0000 144.0000 15.76628882    15
CTC2_L_00455007-02
1 10013U 23956EX  26075.70046296  .00000000  00000+0  00000-0 0  9993
2 10013  43.0000  72.0000 0000000   0.0000 324.0000 15.76628882    16
CTC2_L_00455008-01
1 10014U 22791SV  26075.70046296  .00000000  00000+0  00000-0 0  9990
2 10014  43.0000  84.0000 0000000   0.0000 168.0000 15.76628882    16
CTC2_L_00455008-02
1 10015U 23342HZ  26075.70046296  .00000000  00000+0  00000-0 0  9994
2 10015  43.0000  84.0000 0000000   0.0000 348.0000 15.76628882    17
CTC2_L_00455009-01
1 10016U 25526E   26075.70046296  .00000000  00000+0  00000-0 0  9991
2 10016  43.0000  96.0000 0000000   0.0000 192.0000 15.76628882    18
CTC2_L_00455009-02
1 10017U 22417FN  26075.70046296  .00000000  00000+0  00000-0 0  9998
2 10017  43.0000  96.0000 0000000   0.0000  12.0000 15.76628882    10
CTC2_L_00455010-01
1 10018U 25592VH  26075.70046296  .00000000  00000+0  00000-0 0  9996
2 10018  43.0000 108.0000 0000000   0.0000 216.0000 15.76628882    11
CTC2_L_00455010-02
1 10019U 24310YD  26075.70046296  .00000000  00000+0  00000-0 0  9994
2 10019  43.0000 108.0000 0000000   0.0000  36.0000 15.76628882    12
CTC2_L_00455011-01
1 10020U 25881KT  26075.70046296  .00000000  00000+0  00000-0 0  9990
2 10020  43.0000 120.0000 0000000   0.0000 240.0000 15.76628882    15
CTC2_L_00455011-02
1 10021U 22865YQ  26075.70046296  .00000000  00000+0  00000-0 0  9990
2 10021  43.0000 120.0000 0000000   0.0000  60.0000 15.76628882    16
CTC2_L_00455012-01
1 10022U 23033X   26075.70046296  .00000000  00000+0  00000-0 0  9999
2 10022  43.0000 132.0000 0000000   0.0000 264.0000 15.76628882    16
CTC2_L_00455012-02
1 10023U 24103NO  26075.70046296  .00000000  00000+0  00000-0 0  9999
2 10023  43.0000 132.0000 0000000   0.0000  84.0000 15.76628882    17
CTC2_L_00455013-01
1 10024U 25044DY  26075.70046296  .00000000  00000+0  00000-0 0  9995
2 10024  43.0000 144.0000 0000000   0.0000 288.0000 15.76628882    17
CTC2_L_00455013-02
1 10025U 24993BU  26075.70046296  .00000000  00000+0  00000-0 0  9998
2 10025  43.0000 144.0000 0000000   0.0000 108.0000 15.76628882    19
CTC2_L_00455014-01
1 10026U 24106OD  26075.70046296  .00000000  00000+0  00000-0 0  9995
2 10026  43.0000 156.0000 0000000   0.0000 312.0000 15.76628882    10
CTC2_L_00455014-02
1 10027U 23841PD  26075.70046296  .00000000  00000+0  00000-0 0  9991
2 10027  43.0000 156.0000 0000000   0.0000 132.0000 15.76628882    11
CTC2_L_00455015-01
1 10028U 26923BA  26075.70046296  .00000000  00000+0  00000-0 0  9996
2 10028  43.0000 168.0000 0000000   0.0000 336.0000 15.76628882    11
CTC2_L_00455015-02
1 10029U 22138IH  26075.70046296  .00000000  00000+0  00000-0 0  9991
2 10029  43.0000 168.0000 0000000   0.0000 156.0000 15.76628882    12
CTC2_L_00455016-01
1 10030U 23334RS  26075.70046296  .00000000  00000+0  00000-0 0  9992
2 10030  43.0000 180.0000 0000000   0.0000   0.0000 15.76628882    16
CTC2_L_00455016-02
1 10031U 25166CI  26075.70046296  .00000000  00000+0  00000-0 0  9998
2 10031  43.0000 180.0000 0000000   0.0000 180.0000 15.76628882    16
CTC2_L_00455017-01
1 10032U 23388OY  26075.70046296  .00000000  00000+0  00000-0 0  9993
2 10032  43.0000 192.0000 0000000   0.0000  24.0000 15.76628882    17
CTC2_L_00455017-02
1 10033U 26937WE  26075.70046296  .00000000  00000+0  00000-0 0  9997
2 10033  43.0000 192.0000 0000000   0.0000 204.0000 15.76628882    18
CTC2_L_00455018-01
1 10034U 23146FT  26075.70046296  .00000000  00000+0  00000-0 0  9997
2 10034  43.0000 204.0000 0000000   0.0000  48.0000 15.76628882    19
CTC2_L_00455018-02
1 10035U 23092WP  26075.70046296  .00000000  00000+0  00000-0 0  9998
2 10035  43.0000 204.0000 0000000   0.0000 228.0000 15.76628882    10
CTC2_L_00455019-01
1 10036U 26676SH  26075.70046296  .00000000  00000+0  00000-0 0  9990
2 10036  43.0000 216.0000 0000000   0.0000  72.0000 15.76628882    11
CTC2_L_00455019-02
1 10037U 23405QV  26075.70046296  .00000000  00000+0  00000-0 0  9998
2 10037  43.0000 216.0000 0000000   0.0000 252.0000 15.76628882    12
CTC2_L_00455020-01
1 10038U 23466LT  26075.70046296  .00000000  00000+0  00000-0 0  9996
2 10038  43.0000 228.0000 0000000   0.0000  96.0000 15.76628882    12
CTC2_L_00455020-02
1 10039U 26975V   26075.70046296  .00000000  00000+0  00000-0 0  9995
2 10039  43.0000 228.0000 0000000   0.0000 276.0000 15.76628882    13
CTC2_L_00455021-01
1 10040U 24985PF  26075.70046296  .00000000  00000+0  00000-0 0  9996
2 10040  43.0000 240.0000 0000000   0.0000 120.0000 15.76628882    17
CTC2_L_00455021-02
1 10041U 25444SJ  26075.70046296  .00000000  00000+0  00000-0 0  9998
2 10041  43.0000 240.0000 0000000   0.0000 300.0000 15.76628882    18
CTC2_L_00455022-01
1 10042U 22630XQ  26075.70046296  .00000000  00000+0  00000-0 0  9993
2 10042  43.0000 252.0000 0000000   0.0000 144.0000 15.76628882    18
CTC2_L_00455022-02
1 10043U 26364NP  26075.70046296  .00000000  00000+0  00000-0 0  9992
2 10043  43.0000 252.0000 0000000   0.0000 324.0000 15.76628882    19
CTC2_L_00455023-01
1 10044U 26483BE  26075.70046296  .00000000  00000+0  00000-0 0  9995
2 10044  43.0000 264.0000 0000000   0.0000 168.0000 15.76628882    19
CTC2_L_00455023-02
1 10045U 24590MG  26075.70046296  .00000000  00000+0  00000-0 0  9993
2 10045  43.0000 264.0000 0000000   0.0000 348.0000 15.76628882    10
CTC2_L_00455024-01
1 10046U 24198ZD  26075.70046296  .00000000  00000+0  00000-0 0  9998
2 10046  43.0000 276.0000 0000000   0.0000 192.0000 15.76628882    11
CTC2_L_00455024-02
1 10047U 24104MH  26075.70046296  .00000000  00000+0  00000-0 0  9996
2 10047  43.0000 276.0000 0000000   0.0000  12.0000 15.76628882    13
CTC2_L_00455025-01
1 10048U 24036EF  26075.70046296  .00000000  00000+0  00000-0 0  9991
2 10048  43.0000 288.0000 0000000   0.0000 216.0000 15.76628882    13
CTC2_L_00455025-02
1 10049U 22981VJ  26075.70046296  .00000000  00000+0  00000-0 0  9999
2 10049  43.0000 288.0000 0000000   0.0000  36.0000 15.76628882    14
CTC2_L_00455026-01
1 10050U 24675IG  26075.70046296  .00000000  00000+0  00000-0 0  9993
2 10050  43.0000 300.0000 0000000   0.0000 240.0000 15.76628882    18
CTC2_L_00455026-02
1 10051U 26807SD  26075.70046296  .00000000  00000+0  00000-0 0  9993
2 10051  43.0000 300.0000 0000000   0.0000  60.0000 15.76628882    19
CTC2_L_00455027-01
1 10052U 24338NJ  26075.70046296  .00000000  00000+0  00000-0 0  9991
2 10052  43.0000 312.0000 0000000   0.0000 264.0000 15.76628882    19
CTC2_L_00455027-02
1 10053U 25205VJ  26075.70046296  .00000000  00000+0  00000-0 0  9996
2 10053  43.0000 312.0000 0000000   0.0000  84.0000 15.76628882    10
CTC2_L_00455028-01
1 10054U 26784BD  26075.70046296  .00000000  00000+0  00000-0 0  9990
2 10054  43.0000 324.0000 0000000   0.0000 288.0000 15.76628882    10
CTC2_L_00455028-02
1 10055U 23686IA  26075.70046296  .00000000  00000+0  00000-0 0  9999
2 10055  43.0000 324.0000 0000000   0.0000 108.0000 15.76628882    12
CTC2_L_00455029-01
1 10056U 23038LT  26075.70046296  .00000000  00000+0  00000-0 0  9991
2 10056  43.0000 336.0000 0000000   0.0000 312.0000 15.76628882    13
CTC2_L_00455029-02
1 10057U 22612TN  26075.70046296  .00000000  00000+0  00000-0 0  9999
2 10057  43.0000 336.0000 0000000   0.0000 132.0000 15.76628882    14
CTC2_L_00455030-01
1 10058U 24848HV  26075.70046296  .00000000  00000+0  00000-0 0  9993
2 10058  43.0000 348.0000 0000000   0.0000 336.0000 15.76628882    14
CTC2_L_00455030-02
1 10059U 24034NQ  26075.70046296  .00000000  00000+0  00000-0 0  9991
2 10059  43.0000 348.0000 0000000   0.0000 156.0000 15.76628882    15
